#aV2016  5 23  0  0  0.00000000     288 DD+AD WGS84 FIT  NGA
## 1898  86400.00000000   300.00000000 57531 0.0000000000000
+   31     1  2  3  5  6  7  8  9 10 11 12 13 14 15 16 17 18
+         19 20 21 22 23 24 25 26 27 28 29 30 31 32  0  0  0
+          0  0  0  0  0  0  0  0  0  0  0  0  0  0  0  0  0
+          0  0  0  0  0  0  0  0  0  0  0  0  0  0  0  0  0
+          0  0  0  0  0  0  0  0  0  0  0  0  0  0  0  0  0
++         2  2  2  2  2  2  2  2  2  2  2  2  2  2  2  2  2
++         2  2  2  2  2  2  2  2  2  2  2  2  2  2  0  0  0
++         0  0  0  0  0  0  0  0  0  0  0  0  0  0  0  0  0
++         0  0  0  0  0  0  0  0  0  0  0  0  0  0  0  0  0
++         0  0  0  0  0  0  0  0  0  0  0  0  0  0  0  0  0
%c cc cc ccc ccc cccc cccc cccc cccc ccccc ccccc ccccc ccccc
%c cc cc ccc ccc cccc cccc cccc cccc ccccc ccccc ccccc ccccc
%f  0.0000000  0.000000000  0.00000000000  0.000000000000000
%f  0.0000000  0.000000000  0.00000000000  0.000000000000000
%i    0    0    0    0      0      0      0      0         0
%i    0    0    0    0      0      0      0      0         0
/*      NGA, ST. LOUIS,MO.                                  
/*   EPHEMERIS COMPUTED FROM 2 DAYS OF DATA                 
/*   EPOCHA v2.4 SMOOTHER                                   
/*   G1762 IERS2010 SATAF SATAPC                            
*  2016  5 23 21 20  0.00000000
P  1  13571.980700 -13867.874818  17950.624854     21.325824                    
V  1   -105.077054  23092.638402  18072.135795      0.012010                    
P  2 -14284.116107  -9170.300063 -20080.196941    590.063503                    
V  2   1851.756762 -26404.401570  10125.552069     -0.023317                    
P  3  22508.845049 -13656.363039  -3522.102628    -60.593927                    
V  3   5272.427783    602.580907  31290.554304     -0.036643                    
P  5 -22850.032395    310.309244 -13770.640425   -118.495128                    
V  5  14443.892442  -9870.338286 -24107.527430      0.030214                    
P  6  -6920.687026 -22548.265666 -12195.416116    194.496693                    
V  6   3327.966133 -15309.847896  26389.165035      0.054696                    
P  7   5953.226925 -25114.840801  -5131.526665    452.857539                    
V  7   2272.942315   7007.658737 -31241.939083     -0.022672                    
P  8  21967.582606   2270.332136  14834.248163    -36.251417                    
V  8  14484.120953  12031.170512 -23332.669630     -0.014508                    
P  9   4743.696731 -15016.333094 -21399.306582    134.797933                    
V  9  22876.788211  14650.791628  -5229.733237      0.073179                    
P 10   3094.809878  15284.889705  21512.787839    -29.287454                    
V 10 -24703.948940  11588.902176  -4749.107444     -0.088179                    
P 11  14235.032239  -8538.482741  20177.603158   -647.978256                    
V 11   8765.873207  25733.526045   4617.984879     -0.014018                    
P 12 -24161.239473  10724.292879   -747.894165    380.610529                    
V 12  -1529.419086  -1592.179173  32518.922771      0.011789                    
P 13 -22317.722956 -10955.474296   9093.442392    -19.867360                    
V 13  -7389.163486  -9418.671734 -29159.459950     -0.026037                    
P 14  14467.856056  20217.301444   9839.174102    -15.457792                    
V 14 -10832.549192  -5759.146165  28356.857722     -0.020825                    
P 15 -21136.231625   1387.042198  16103.615631   -312.183411                    
V 15 -16583.060006 -12486.542973 -20183.056880     -0.016585                    
P 16  22382.284205   1384.184193 -14640.877416    -15.599675                    
V 16 -16482.564693   7794.207719 -24259.122752      0.025436                    
P 17 -10977.469684 -20027.169066  14044.600843   -203.824721                    
V 17  14703.551579   9013.851502  24753.414665     -0.002704                    
P 18  -8918.036388  18948.966410  16732.646241    518.790400                    
V 18 -19260.348940   7326.977490 -19451.138497      0.040744                    
P 19 -17949.423148 -18725.469192   4445.667818   -525.665292                    
V 19   6347.923903   1736.637294  31615.828991      0.000278                    
P 20 -23199.734599  12958.296078   -941.339394    414.049167                    
V 20  -1095.903636  -3853.086291 -30901.356666      0.023412                    
P 21  -2206.984036  26240.940586  -1419.028388   -523.631688                    
V 21  -3725.559031  -2878.974990 -31297.025846     -0.012277                    
P 22  24765.992011  -8090.379628   5744.158997    336.001692                    
V 22  -4474.732862   6560.355883  29653.068184     -0.082742                    
P 23  14926.663568  -7721.488372 -20468.256936   -175.065547                    
V 23  21418.748685  15415.067804   9274.590799     -0.016498                    
P 24 -14491.845220  10465.446417  19524.008507    -17.516383                    
V 24   -256.468267 -25057.469421  13392.984487     -0.006202                    
P 25 -16997.096419  16806.320070 -11496.308215   -176.904338                    
V 25 -13894.590133   4448.799618  27531.492790     -0.070542                    
P 26  14783.381883   8576.250627 -20350.505594   -373.653638                    
V 26 -22707.243895  12317.917731 -11259.204175     -0.120937                    
P 27  23501.082544  11333.482338   5401.460456     95.678372                    
V 27   4433.158943   5703.473650 -30902.309064      0.040897                    
P 28   -493.410954 -15485.294873  22195.639126    525.087726                    
V 28  24880.085626  -9466.073261  -6272.377883      0.026342                    
P 29  -8317.906243  12311.138525 -22007.661325    657.116143                    
V 29 -22239.038557 -16867.036399   -986.318017     -0.001067                    
P 30    277.103123 -26083.164841   4700.051594    127.611888                    
V 30   3910.160958  -5515.354359 -30871.592052      0.030012                    
P 31   8007.064932  20322.481355 -14749.853037    267.515106                    
V 31  -4075.245016  18709.083304  23756.703213     -0.019090                    
P 32  13455.557138  19339.864362  12282.619788    -10.920082                    
V 32 -14251.104492  -6717.365526  26194.635850     -0.065038                    
EOF
